H1 CPF  1  HTS 2022  5 30 12  6501 larets           NONE
H2  0304206 5557    27944 2022 05 30  0  0  0 2022 06 04  0  0  0   180 1 1  0 0 0
H5  0.0560 
H9 
10 0 59732  82440.00000  0    3000231.484    2033185.901    6052583.620
10 0 59732  82620.00000  0    2251809.043    1035512.119    6605605.415
10 0 59732  82800.00000  0    1395166.150      21277.658    6916894.956
10 0 59732  82980.00000  0     461555.075    -970235.851    6975297.274
10 0 59732  83160.00000  0    -514036.061   -1901498.358    6778848.194
10 0 59732  83340.00000  0   -1494196.200   -2738142.942    6334815.873
10 0 59732  83520.00000  0   -2440514.097   -3450223.303    5659429.745
10 0 59732  83700.00000  0   -3315070.070   -4013284.868    4777318.197
10 0 59732  83880.00000  0   -4081961.495   -4409219.606    3720649.555
10 0 59732  84060.00000  0   -4708787.601   -4626863.441    2527986.987
10 0 59732  84240.00000  0   -5168029.852   -4662314.927    1242899.089
10 0 59732  84420.00000  0   -5438268.841   -4518956.497     -87635.605
10 0 59732  84600.00000  0   -5505171.932   -4207170.782   -1414969.846
10 0 59732  84780.00000  0   -5362197.393   -3743764.188   -2690603.706
10 0 59732  84960.00000  0   -5010972.149   -3151124.119   -3867990.036
10 0 59732  85140.00000  0   -4461331.297   -2456162.178   -4904244.986
10 0 59732  85320.00000  0   -3731024.888   -1689100.283   -5761699.370
10 0 59732  85500.00000  0   -2845110.010    -882159.867   -6409234.849
10 0 59732  85680.00000  0   -1835061.618     -68214.831   -6823364.602
10 0 59732  85860.00000  0    -737640.476     720532.075   -6989032.769
10 0 59732  86040.00000  0     406433.193    1453800.560   -6900124.262
10 0 59732  86220.00000  0    1553961.658    2104376.461   -6559687.251
10 0 59733      0.00000  0    2660875.478    2649116.350   -5979862.057
10 0 59733    180.00000  0    3683914.172    3069781.077   -5181500.269
10 0 59733    360.00000  0    4582322.620    3353667.700   -4193481.200
10 0 59733    540.00000  0    5319509.993    3494018.223   -3051729.619
10 0 59733    720.00000  0    5864593.814    3490179.947   -1797945.772
10 0 59733    900.00000  0    6193753.716    3347506.538    -478085.859
10 0 59733   1080.00000  0    6291319.645    3076993.241     859354.746
10 0 59733   1260.00000  0    6150529.706    2694660.299    2165180.614
10 0 59733   1440.00000  0    5773910.489    2220719.695    3391372.747
10 0 59733   1620.00000  0    5173258.300    1678567.712    4492916.332
10 0 59733   1800.00000  0    4369221.849    1093658.714    5429488.032
10 0 59733   1980.00000  0    3390524.088     492324.252    6166932.563
10 0 59733   2160.00000  0    2272861.507     -99402.843    6678479.474
10 0 59733   2340.00000  0    1057547.563    -656900.803    6945661.125
10 0 59733   2520.00000  0    -210044.119   -1157968.991    6958930.287
10 0 59733   2700.00000  0   -1482184.580   -1583700.180    6717959.634
10 0 59733   2880.00000  0   -2710577.570   -1919184.598    6231624.962
10 0 59733   3060.00000  0   -3848175.510   -2154023.263    5517687.952
10 0 59733   3240.00000  0   -4850983.204   -2282644.687    4602183.208
10 0 59733   3420.00000  0   -5679778.771   -2304411.294    3518501.211
10 0 59733   3600.00000  0   -6301677.018   -2223506.123    2306198.431
10 0 59733   3780.00000  0   -6691475.881   -2048609.559    1009571.259
10 0 59733   3960.00000  0   -6832719.654   -1792378.069    -323972.566
10 0 59733   4140.00000  0   -6718412.337   -1470744.282   -1645676.545
10 0 59733   4320.00000  0   -6351343.641   -1102076.803   -2907254.354
10 0 59733   4500.00000  0   -5744011.830    -706246.509   -4062681.910
10 0 59733   4680.00000  0   -4918153.780    -303645.409   -5069887.544
10 0 59733   4860.00000  0   -3903910.049      85793.045   -5892270.861
10 0 59733   5040.00000  0   -2738670.836     443521.358   -6499995.270
10 0 59733   5220.00000  0   -1465664.584     753211.733   -6871015.997
10 0 59733   5400.00000  0    -132350.080    1001463.004   -6991830.074
10 0 59733   5580.00000  0    1211331.095    1178358.755   -6857935.673
10 0 59733   5760.00000  0    2514791.992    1277858.043   -6474006.350
10 0 59733   5940.00000  0    3728685.522    1298008.078   -5853763.033
10 0 59733   6120.00000  0    4806769.501    1240968.410   -5019536.914
10 0 59733   6300.00000  0    5707694.345    1112845.205   -4001533.528
10 0 59733   6480.00000  0    6396648.618     923339.847   -2836796.682
10 0 59733   6660.00000  0    6846784.539     685221.786   -1567894.607
10 0 59733   6840.00000  0    7040352.567     413647.522    -241361.633
10 0 59733   7020.00000  0    6969469.561     125356.686    1094047.191
10 0 59733   7200.00000  0    6636476.535    -162212.159    2389207.598
10 0 59733   7380.00000  0    6053859.940    -431840.893    3596503.318
10 0 59733   7560.00000  0    5243735.625    -667433.854    4671633.001
10 0 59733   7740.00000  0    4236937.297    -854852.919    5575263.479
10 0 59733   7920.00000  0    3071758.854    -982644.453    6274464.694
10 0 59733   8100.00000  0    1792424.613   -1042621.535    6743873.822
10 0 59733   8280.00000  0     447362.408   -1030282.094    6966565.703
10 0 59733   8460.00000  0    -912654.882    -945046.233    6934611.492
10 0 59733   8640.00000  0   -2236424.833    -790305.644    6649319.227
10 0 59733   8820.00000  0   -3474226.301    -573284.520    6121166.576
10 0 59733   9000.00000  0   -4579675.089    -304717.392    5369433.084
10 0 59733   9180.00000  0   -5511471.799       1643.280    4421530.008
10 0 59733   9360.00000  0   -6234973.104     329672.601    3312034.216
10 0 59733   9540.00000  0   -6723521.084     661647.248    2081454.000
10 0 59733   9720.00000  0   -6959476.009     979115.193     774761.552
10 0 59733   9900.00000  0   -6934897.867    1263818.263    -560263.553
10 0 59733  10080.00000  0   -6651832.287    1498621.750   -1874813.239
10 0 59733  10260.00000  0   -6122185.545    1668401.943   -3120868.867
10 0 59733  10440.00000  0   -5367199.253    1760848.890   -4252984.801
10 0 59733  10620.00000  0   -4416545.676    1767137.958   -5229955.385
10 0 59733  10800.00000  0   -3307105.114    1682440.215   -6016292.892
10 0 59733  10980.00000  0   -2081494.479    1506251.091   -6583472.795
10 0 59733  11160.00000  0    -786411.104    1242525.434   -6910917.595
10 0 59733  11340.00000  0     529141.031     899615.434   -6986693.418
10 0 59733  11520.00000  0    1815675.975     490015.525   -6807921.050
10 0 59733  11700.00000  0    3025061.298      29918.779   -6380897.244
10 0 59733  11880.00000  0    4112306.033    -461404.423   -5720908.613
10 0 59733  12060.00000  0    5037241.895    -962387.037   -4851741.974
10 0 59733  12240.00000  0    5766047.988   -1450082.366   -3804896.467
10 0 59733  12420.00000  0    6272557.633   -1901184.548   -2618496.567
10 0 59733  12600.00000  0    6539280.609   -2293109.013   -1335930.110
10 0 59733  12780.00000  0    6558083.135   -2605080.851      -4252.613
10 0 59733  12960.00000  0    6330482.207   -2819172.949    1327580.056
10 0 59733  13140.00000  0    5867530.444   -2921236.579    2610575.969
10 0 59733  13320.00000  0    5189288.626   -2901672.044    3797578.754
10 0 59733  13500.00000  0    4323917.616   -2755994.842    4845051.979
10 0 59733  13680.00000  0    3306450.930   -2485172.484    5714697.079
10 0 59733  13860.00000  0    2177310.185   -2095719.950    6374846.166
10 0 59733  14040.00000  0     980644.310   -1599549.985    6801575.779
10 0 59733  14220.00000  0    -237428.762   -1013593.371    6979520.840
10 0 59733  14400.00000  0   -1430607.817    -359204.578    6902375.424
10 0 59733  14580.00000  0   -2554157.342     338623.696    6573081.312
10 0 59733  14760.00000  0   -3566569.245    1052212.284    6003709.044
10 0 59733  14940.00000  0   -4431090.482    1752283.129    5215034.527
10 0 59733  15120.00000  0   -5117070.456    2409147.685    4235815.480
10 0 59733  15300.00000  0   -5601076.033    2993955.336    3101776.389
10 0 59733  15480.00000  0   -5867725.429    3479948.451    1854329.861
10 0 59733  15660.00000  0   -5910207.721    3843670.515     539072.284
10 0 59733  15840.00000  0   -5730453.747    4066065.781    -795900.440
10 0 59733  16020.00000  0   -5338946.332    4133410.770   -2101782.689
10 0 59733  16200.00000  0   -4754177.444    4038030.879   -3330882.418
10 0 59733  16380.00000  0   -4001775.118    3778759.322   -4438390.427
10 0 59733  16560.00000  0   -3113356.459    3361120.494   -5384013.920
10 0 59733  16740.00000  0   -2125174.396    2797236.991   -6133413.603
10 0 59733  16920.00000  0   -1076625.411    2105470.800   -6659406.994
10 0 59733  17100.00000  0      -8677.617    1309812.867   -6942902.789
10 0 59733  17280.00000  0    1037712.237     439050.968   -6973549.331
10 0 59733  17460.00000  0    2023145.731    -474257.086   -6750096.521
10 0 59733  17640.00000  0    2911249.405   -1394979.767   -6280457.146
10 0 59733  17820.00000  0    3670012.364   -2286739.586   -5581467.097
10 0 59733  18000.00000  0    4272959.162   -3113336.259   -4678347.065
10 0 59733  18180.00000  0    4700115.118   -3840223.994   -3603856.999
10 0 59733  18360.00000  0    4938716.948   -4435975.096   -2397157.803
10 0 59733  18540.00000  0    4983640.229   -4873667.850   -1102407.257
10 0 59733  18720.00000  0    4837509.852   -5132128.759     232870.816
10 0 59733  18900.00000  0    4510475.364   -5196956.652    1559579.688
10 0 59733  19080.00000  0    4019659.601   -5061265.295    2828922.870
10 0 59733  19260.00000  0    3388307.659   -4726103.250    3994263.784
10 0 59733  19440.00000  0    2644687.183   -4200531.965    5012885.780
10 0 59733  19620.00000  0    1820802.025   -3501359.939    5847574.647
10 0 59733  19800.00000  0     950989.229   -2652555.164    6467963.162
10 0 59733  19980.00000  0      70467.631   -1684370.015    6851592.649
10 0 59733  20160.00000  0    -786093.440    -632225.855    6984669.651
10 0 59733  20340.00000  0   -1585930.691     464601.115    6862514.938
99
